SL-14 R/B               
1 21423U 91042B   25338.20565850  .00000871  00000+0  10737-3 0  9996
2 21423  82.4918 309.7265 0016690 189.7482 170.3411 14.81726712838936
ERS-1                   
1 21574U 91050A   25338.04751441  .00000668  00000+0  22826-3 0  9993
2 21574  98.7909 348.8848 0032841 125.0517 235.3758 14.39354672801977
ARIANE 40 R/B           
1 21610U 91050F   25338.11776877  .00000727  00000+0  23071-3 0  9991
2 21610  98.2177  28.8590 0003322  24.6171 335.5178 14.42802209805219
INTERCOSMOS 25          
1 21819U 91086A   25338.13162447  .00003885  00000+0  77101-3 0  9996
2 21819  82.6070   7.7816 1487007 322.9690  27.7180 12.11682238485111
SL-8 R/B                
1 21876U 92008B   25338.30680532  .00000216  00000+0  20582-3 0  9999
2 21876  82.9263 338.7197 0035647  42.8741 328.7463 13.75956434696309
SL-8 R/B                
1 21938U 92020B   25338.19516397  .00000093  00000+0  80686-4 0  9991
2 21938  82.9312 224.6619 0028364 202.3287 269.7207 13.75524896688002
USA 81                  
1 21949U 92023A   25338.09197454  .00000346  00000+0  12101-3 0  9991
2 21949  85.0087 186.5633 0001795  62.5248 297.6126 14.32322232 81103
COSMOS 2219             
1 22219U 92076A   25338.09441552 -.00000172  00000+0 -65550-4 0  9997
2 22219  71.0592 217.9046 0018887 338.6713  21.3620 14.14063801704861
SL-16 R/B               
1 22220U 92076B   25338.31761490  .00000040  00000+0  43848-4 0  9998
2 22220  71.0016  29.2731 0015059 245.4601 185.4007 14.16841678708322
COSMOS 2221             
1 22236U 92080A   25338.18794199  .00004002  00000+0  35652-3 0  9992
2 22236  82.5049  10.5112 0015408 148.3902 211.8249 14.95711261766519
SL-16 R/B               
1 22285U 92093B   25338.05153435 -.00000038  00000+0  47794-5 0  9996
2 22285  71.0202 205.0337 0001948  98.4478 261.6865 14.15425671699627
COSMOS 2228             
1 22286U 92094A   25338.26650619  .00005499  00000+0  47862-3 0  9996
2 22286  82.5169 328.6424 0016316 262.6521  97.2847 14.96667628761784
