CCSDS_OMM_VERS = 2.0
CREATION_DATE  = 
ORIGINATOR     = 

OBJECT_NAME    = SL-14 R/B
OBJECT_ID      = 1991-042B
CENTER_NAME    = EARTH
REF_FRAME      = TEME
TIME_SYSTEM    = UTC
MEAN_ELEMENT_THEORY = SGP/SGP4

EPOCH          = 2025-12-04T04:56:08.894400
MEAN_MOTION    = 14.81726712
ECCENTRICITY   = .00166906
INCLINATION    = 82.4918
RA_OF_ASC_NODE = 309.7265
ARG_OF_PERICENTER = 189.7482
MEAN_ANOMALY   = 170.3411

EPHEMERIS_TYPE = 0
CLASSIFICATION_TYPE = U
NORAD_CAT_ID   = 21423
ELEMENT_SET_NO = 999
REV_AT_EPOCH   = 83893
BSTAR          = .10737477E-3
MEAN_MOTION_DOT = .871E-5
MEAN_MOTION_DDOT = 0

CCSDS_OMM_VERS = 2.0
CREATION_DATE  = 
ORIGINATOR     = 

OBJECT_NAME    = ERS-1
OBJECT_ID      = 1991-050A
CENTER_NAME    = EARTH
REF_FRAME      = TEME
TIME_SYSTEM    = UTC
MEAN_ELEMENT_THEORY = SGP/SGP4

EPOCH          = 2025-12-04T01:08:25.245024
MEAN_MOTION    = 14.39354672
ECCENTRICITY   = .00328413
INCLINATION    = 98.7909
RA_OF_ASC_NODE = 348.8848
ARG_OF_PERICENTER = 125.0517
MEAN_ANOMALY   = 235.3758

EPHEMERIS_TYPE = 0
CLASSIFICATION_TYPE = U
NORAD_CAT_ID   = 21574
ELEMENT_SET_NO = 999
REV_AT_EPOCH   = 80197
BSTAR          = .22826403E-3
MEAN_MOTION_DOT = .668E-5
MEAN_MOTION_DDOT = 0

CCSDS_OMM_VERS = 2.0
CREATION_DATE  = 
ORIGINATOR     = 

OBJECT_NAME    = ARIANE 40 R/B
OBJECT_ID      = 1991-050F
CENTER_NAME    = EARTH
REF_FRAME      = TEME
TIME_SYSTEM    = UTC
MEAN_ELEMENT_THEORY = SGP/SGP4

EPOCH          = 2025-12-04T02:49:35.221728
MEAN_MOTION    = 14.42802209
ECCENTRICITY   = .00033223
INCLINATION    = 98.2177
RA_OF_ASC_NODE = 28.8590
ARG_OF_PERICENTER = 24.6171
MEAN_ANOMALY   = 335.5178

EPHEMERIS_TYPE = 0
CLASSIFICATION_TYPE = U
NORAD_CAT_ID   = 21610
ELEMENT_SET_NO = 999
REV_AT_EPOCH   = 80521
BSTAR          = .23071099E-3
MEAN_MOTION_DOT = .727E-5
MEAN_MOTION_DDOT = 0

CCSDS_OMM_VERS = 2.0
CREATION_DATE  = 
ORIGINATOR     = 

OBJECT_NAME    = INTERCOSMOS 25
OBJECT_ID      = 1991-086A
CENTER_NAME    = EARTH
REF_FRAME      = TEME
TIME_SYSTEM    = UTC
MEAN_ELEMENT_THEORY = SGP/SGP4

EPOCH          = 2025-12-04T03:09:32.354208
MEAN_MOTION    = 12.11682238
ECCENTRICITY   = .14870077
INCLINATION    = 82.6070
RA_OF_ASC_NODE = 7.7816
ARG_OF_PERICENTER = 322.9690
MEAN_ANOMALY   = 27.7180

EPHEMERIS_TYPE = 0
CLASSIFICATION_TYPE = U
NORAD_CAT_ID   = 21819
ELEMENT_SET_NO = 999
REV_AT_EPOCH   = 48511
BSTAR          = .77101144E-3
MEAN_MOTION_DOT = .3885E-4
MEAN_MOTION_DDOT = 0

CCSDS_OMM_VERS = 2.0
CREATION_DATE  = 
ORIGINATOR     = 

OBJECT_NAME    = SL-8 R/B
OBJECT_ID      = 1992-008B
CENTER_NAME    = EARTH
REF_FRAME      = TEME
TIME_SYSTEM    = UTC
MEAN_ELEMENT_THEORY = SGP/SGP4

EPOCH          = 2025-12-04T07:21:47.979648
MEAN_MOTION    = 13.75956434
ECCENTRICITY   = .00356476
INCLINATION    = 82.9263
RA_OF_ASC_NODE = 338.7197
ARG_OF_PERICENTER = 42.8741
MEAN_ANOMALY   = 328.7463

EPHEMERIS_TYPE = 0
CLASSIFICATION_TYPE = U
NORAD_CAT_ID   = 21876
ELEMENT_SET_NO = 999
REV_AT_EPOCH   = 69630
BSTAR          = .20581959E-3
MEAN_MOTION_DOT = .216E-5
MEAN_MOTION_DDOT = 0

CCSDS_OMM_VERS = 2.0
CREATION_DATE  = 
ORIGINATOR     = 

OBJECT_NAME    = SL-8 R/B
OBJECT_ID      = 1992-020B
CENTER_NAME    = EARTH
REF_FRAME      = TEME
TIME_SYSTEM    = UTC
MEAN_ELEMENT_THEORY = SGP/SGP4

EPOCH          = 2025-12-04T04:41:02.167008
MEAN_MOTION    = 13.75524896
ECCENTRICITY   = .00283648
INCLINATION    = 82.9312
RA_OF_ASC_NODE = 224.6619
ARG_OF_PERICENTER = 202.3287
MEAN_ANOMALY   = 269.7207

EPHEMERIS_TYPE = 0
CLASSIFICATION_TYPE = U
NORAD_CAT_ID   = 21938
ELEMENT_SET_NO = 999
REV_AT_EPOCH   = 68800
BSTAR          = .80686307E-4
MEAN_MOTION_DOT = .93E-6
MEAN_MOTION_DDOT = 0

CCSDS_OMM_VERS = 2.0
CREATION_DATE  = 
ORIGINATOR     = 

OBJECT_NAME    = USA 81
OBJECT_ID      = 1992-023A
CENTER_NAME    = EARTH
REF_FRAME      = TEME
TIME_SYSTEM    = UTC
MEAN_ELEMENT_THEORY = SGP/SGP4

EPOCH          = 2025-12-04T02:12:26.600256
MEAN_MOTION    = 14.32322232
ECCENTRICITY   = .00017951
INCLINATION    = 85.0087
RA_OF_ASC_NODE = 186.5633
ARG_OF_PERICENTER = 62.5248
MEAN_ANOMALY   = 297.6126

EPHEMERIS_TYPE = 0
CLASSIFICATION_TYPE = U
NORAD_CAT_ID   = 21949
ELEMENT_SET_NO = 999
REV_AT_EPOCH   = 8110
BSTAR          = .12101366E-3
MEAN_MOTION_DOT = .346E-5
MEAN_MOTION_DDOT = 0

CCSDS_OMM_VERS = 2.0
CREATION_DATE  = 
ORIGINATOR     = 

OBJECT_NAME    = COSMOS 2219
OBJECT_ID      = 1992-076A
CENTER_NAME    = EARTH
REF_FRAME      = TEME
TIME_SYSTEM    = UTC
MEAN_ELEMENT_THEORY = SGP/SGP4

EPOCH          = 2025-12-04T02:15:57.500928
MEAN_MOTION    = 14.14063801
ECCENTRICITY   = .00188874
INCLINATION    = 71.0592
RA_OF_ASC_NODE = 217.9046
ARG_OF_PERICENTER = 338.6713
MEAN_ANOMALY   = 21.3620

EPHEMERIS_TYPE = 0
CLASSIFICATION_TYPE = U
NORAD_CAT_ID   = 22219
ELEMENT_SET_NO = 999
REV_AT_EPOCH   = 70486
BSTAR          = -.65550163E-4
MEAN_MOTION_DOT = -.172E-5
MEAN_MOTION_DDOT = 0

CCSDS_OMM_VERS = 2.0
CREATION_DATE  = 
ORIGINATOR     = 

OBJECT_NAME    = SL-16 R/B
OBJECT_ID      = 1992-076B
CENTER_NAME    = EARTH
REF_FRAME      = TEME
TIME_SYSTEM    = UTC
MEAN_ELEMENT_THEORY = SGP/SGP4

EPOCH          = 2025-12-04T07:37:21.927360
MEAN_MOTION    = 14.16841678
ECCENTRICITY   = .00150597
INCLINATION    = 71.0016
RA_OF_ASC_NODE = 29.2731
ARG_OF_PERICENTER = 245.4601
MEAN_ANOMALY   = 185.4007

EPHEMERIS_TYPE = 0
CLASSIFICATION_TYPE = U
NORAD_CAT_ID   = 22220
ELEMENT_SET_NO = 999
REV_AT_EPOCH   = 70832
BSTAR          = .43848232E-4
MEAN_MOTION_DOT = .4E-6
MEAN_MOTION_DDOT = 0

CCSDS_OMM_VERS = 2.0
CREATION_DATE  = 
ORIGINATOR     = 

OBJECT_NAME    = COSMOS 2221
OBJECT_ID      = 1992-080A
CENTER_NAME    = EARTH
REF_FRAME      = TEME
TIME_SYSTEM    = UTC
MEAN_ELEMENT_THEORY = SGP/SGP4

EPOCH          = 2025-12-04T04:30:38.187936
MEAN_MOTION    = 14.95711261
ECCENTRICITY   = .00154088
INCLINATION    = 82.5049
RA_OF_ASC_NODE = 10.5112
ARG_OF_PERICENTER = 148.3902
MEAN_ANOMALY   = 211.8249

EPHEMERIS_TYPE = 0
CLASSIFICATION_TYPE = U
NORAD_CAT_ID   = 22236
ELEMENT_SET_NO = 999
REV_AT_EPOCH   = 76651
BSTAR          = .35652396E-3
MEAN_MOTION_DOT = .4002E-4
MEAN_MOTION_DDOT = 0

CCSDS_OMM_VERS = 2.0
CREATION_DATE  = 
ORIGINATOR     = 

OBJECT_NAME    = SL-16 R/B
OBJECT_ID      = 1992-093B
CENTER_NAME    = EARTH
REF_FRAME      = TEME
TIME_SYSTEM    = UTC
MEAN_ELEMENT_THEORY = SGP/SGP4

EPOCH          = 2025-12-04T01:14:12.567840
MEAN_MOTION    = 14.15425671
ECCENTRICITY   = .00019487
INCLINATION    = 71.0202
RA_OF_ASC_NODE = 205.0337
ARG_OF_PERICENTER = 98.4478
MEAN_ANOMALY   = 261.6865

EPHEMERIS_TYPE = 0
CLASSIFICATION_TYPE = U
NORAD_CAT_ID   = 22285
ELEMENT_SET_NO = 999
REV_AT_EPOCH   = 69962
BSTAR          = .4779384E-5
MEAN_MOTION_DOT = -.38E-6
MEAN_MOTION_DDOT = 0

CCSDS_OMM_VERS = 2.0
CREATION_DATE  = 
ORIGINATOR     = 

OBJECT_NAME    = COSMOS 2228
OBJECT_ID      = 1992-094A
CENTER_NAME    = EARTH
REF_FRAME      = TEME
TIME_SYSTEM    = UTC
MEAN_ELEMENT_THEORY = SGP/SGP4

EPOCH          = 2025-12-04T06:23:46.134816
MEAN_MOTION    = 14.96667628
ECCENTRICITY   = .00163166
INCLINATION    = 82.5169
RA_OF_ASC_NODE = 328.6424
ARG_OF_PERICENTER = 262.6521
MEAN_ANOMALY   = 97.2847

EPHEMERIS_TYPE = 0
CLASSIFICATION_TYPE = U
NORAD_CAT_ID   = 22286
ELEMENT_SET_NO = 999
REV_AT_EPOCH   = 76178
BSTAR          = .47862208E-3
MEAN_MOTION_DOT = .5499E-4
MEAN_MOTION_DDOT = 0

